SL-16 R/B               
1 25400U 98043G   26061.85558772  .00000078  00000+0  51498-4 0  9992
2 25400  98.8243  15.1711 0010550  39.2642 320.9300 14.26047932438011
SL-16 R/B               
1 25407U 98045B   26061.79239831 -.00000238  00000+0 -96012-4 0  9997
2 25407  71.0112 196.0774 0006344  18.8432 341.2924 14.16189648426127
ISS (ZARYA)             
1 25544U 98067A   26061.93054995  .00009325  00000+0  18075-3 0  9991
2 25544  51.6319 105.7724 0008215 150.8374 209.3074 15.48408287555284
CZ-4B R/B               
1 25732U 99025C   26062.10313328  .00000074  00000+0  56463-4 0  9999
2 25732  98.6640 106.5404 0037120   5.6258  48.8396 14.18263792387237
OKEAN-O                 
1 25860U 99039A   26062.16298375  .00000795  00000+0  11112-3 0  9997
2 25860  97.9456 122.1204 0001453  71.2203 288.9166 14.80322800433427
SL-16 R/B               
1 25861U 99039B   26062.14899943  .00000711  00000+0  96997-4 0  9997
2 25861  97.9980 121.2550 0013453 279.5676  80.4016 14.81720640435891
DELTA 2 R/B             
1 25876U 99041E   26062.07041023  .00001695  00000+0  31034-3 0  9998
2 25876  51.7651 327.7179 0502356 328.8923  28.3138 14.11813362362092
HELIOS 1B               
1 25977U 99064A   26062.12241493  .00002265  00000+0  25521-3 0  9992
2 25977  98.1704 324.1726 0002519  83.9486 276.2016 14.87664420684285
TERRA                   
1 25994U 99068A   26062.13367142  .00000513  00000+0  11359-3 0  9994
2 25994  97.9607 115.8185 0002257 167.8691 217.2698 14.61006268394120
SL-16 R/B               
1 26070U 00006B   26062.15929306  .00000240  00000+0  14621-3 0  9994
2 26070  71.0013 111.5695 0017234 199.1869 160.8607 14.15824224347631
TITAN 4B R/B            
1 26474U 00047B   26062.13684625  .00004858  00000+0  30570-3 0  9997
2 26474  67.9882  58.9354 0037956  43.1985 317.2131 15.09484626391926
ENVISAT                 
1 27386U 02009A   26061.85866175  .00000157  00000+0  64556-4 0  9990
2 27386  98.3717  15.6191 0001346  84.9534 290.4970 14.39033896258195
